LEMUR-2-PETERG          
1 42841U 17042S   26068.48235713  .00023240  00000+0  81076-3 0  9993
2 42841  97.3980 253.6596 0003700 341.6938  18.4169 15.29611459473171
STARLINK-31727          
1 59638U 24082H   26067.61913985 -.00000502  00000+0 -87427-5 0  9991
2 59638  43.0027 146.2440 0001098 232.1445 127.9307 15.27561531104694
